     2.10           NAVIGATION DATA     G (GPS)             RINEX VERSION / TYPE
DAT2RINW 3.10 001   hsx                 09AUG07 22:53:26    PGM / RUN BY / DATE 
                                                            COMMENT             
     .4657D-08   .1490D-07  -.5960D-07  -.1192D-06          ION ALPHA           
     .7782D+05   .4915D+05  -.6554D+05  -.2621D+06          ION BETA            
     .372529029846D-08  .444089209850D-14   589824     1439 DELTA-UTC: A0,A1,T,W
    14                                                      LEAP SECONDS        
                                                            END OF HEADER       
 1 07  8  9  7 59 44.0  .144955236465D-03  .238742359215D-11  .000000000000D+00
     .106000000000D+03  .709375000000D+01  .413302947422D-08 -.753394681387D+00
     .383704900742D-06  .673736119643D-02  .108219683170D-05  .515339458656D+04
     .374384000000D+06 -.782310962677D-07  .962127194722D+00  .167638063431D-07
     .990545367345D+00  .373125000000D+03 -.179895672869D+01 -.822212786744D-08
    -.821462758926D-10  .100000000000D+01  .143900000000D+04  .000000000000D+00
     .240000000000D+01  .000000000000D+00 -.372529029846D-08  .106000000000D+03
     .370878000000D+06  .400000000000D+01
 3 07  8  9  8  0  0.0  .987602397799D-04  .545696821064D-11  .000000000000D+00
     .224000000000D+03  .850000000000D+01  .570059466298D-08 -.401646224303D+00
     .594183802605D-06  .959899404552D-02  .586174428463D-05  .515361677742D+04
     .374400000000D+06  .260770320892D-07 -.232989873667D+01  .134110450745D-06
     .925831108765D+00  .248343750000D+03  .744829256534D+00 -.862071658503D-08
     .235724106901D-09  .100000000000D+01  .143900000000D+04  .000000000000D+00
     .240000000000D+01  .000000000000D+00 -.419095158577D-08  .224000000000D+03
     .370878000000D+06  .400000000000D+01
 3 07  8  9  9 59 44.0  .987993553281D-04  .545696821064D-11  .000000000000D+00
     .700000000000D+01  .171562500000D+02  .562059110365D-08  .646219591286D+00
     .935047864914D-06  .960026297253D-02  .600330531597D-05  .515361927414D+04
     .381584000000D+06 -.670552253723D-07 -.232996035040D+01  .109896063805D-06
     .925832776491D+00  .245718750000D+03  .744852655909D+00 -.859321502844D-08
     .185007703601D-09  .100000000000D+01  .143900000000D+04  .000000000000D+00
     .240000000000D+01  .000000000000D+00 -.419095158577D-08  .700000000000D+01
     .379578000000D+06  .400000000000D+01
 3 07  8  9 10  0  0.0  .987998209894D-04  .545696821064D-11  .000000000000D+00
     .225000000000D+03  .171562500000D+02  .562059110365D-08  .648552304864D+00
     .935047864914D-06  .960026658140D-02  .600330531597D-05  .515361926460D+04
     .381600000000D+06 -.670552253723D-07 -.232996050400D+01  .109896063805D-06
     .925832766251D+00  .245718750000D+03  .744853846724D+00 -.859321502844D-08
     .185007703601D-09  .100000000000D+01  .143900000000D+04  .000000000000D+00
     .240000000000D+01  .000000000000D+00 -.419095158577D-08  .225000000000D+03
     .374418000000D+06  .400000000000D+01
 3 07  8  9 11 59 44.0  .988389365375D-04  .545696821064D-11  .000000000000D+00
     .800000000000D+01  .157187500000D+02  .558558976849D-08  .169638384867D+01
     .761821866035D-06  .960064097308D-02  .632368028164D-05  .515362051773D+04
     .388784000000D+06 -.225380063057D-06 -.233002256538D+01  .465661287308D-07
     .925834417885D+00  .240906250000D+03  .744910166144D+00 -.851678372271D-08
     .262153770914D-09  .100000000000D+01  .143900000000D+04  .000000000000D+00
     .240000000000D+01  .000000000000D+00 -.419095158577D-08  .800000000000D+01
     .381618000000D+06  .400000000000D+01
 6 07  8  9  8  0  0.0  .244285911322D-03  .272848410532D-11  .000000000000D+00
     .700000000000D+01  .127187500000D+02  .540951106132D-08 -.252757339603D+01
     .493600964546D-06  .579656474292D-02  .570341944695D-05  .515371334839D+04
     .374400000000D+06  .931322574615D-07 -.226784543392D+01  .745058059692D-07
     .933346417373D+00  .250312500000D+03 -.169518573778D+01 -.828463075919D-08
     .311798697972D-09  .100000000000D+01  .143900000000D+04  .000000000000D+00
     .240000000000D+01  .000000000000D+00 -.465661287308D-08  .700000000000D+01
     .371088000000D+06  .400000000000D+01
 7 07  8  9  7 59 44.0  .158678274602D-03 -.216004991671D-10  .000000000000D+00
     .860000000000D+02  .133750000000D+02  .534700861365D-08 -.266403167637D+01
     .486150383949D-06  .105488356203D-01  .572577118874D-05  .515359548569D+04
     .374384000000D+06  .175088644028D-06 -.229338646507D+01  .949949026108D-07
     .934958298549D+00  .250031250000D+03 -.166673733249D+01 -.818176904005D-08
     .346800171913D-09  .100000000000D+01  .143900000000D+04  .000000000000D+00
     .240000000000D+01  .000000000000D+00 -.232830643654D-08  .860000000000D+02
     .370878000000D+06  .400000000000D+01
 8 07  8  9 11 59 44.0 -.118215568364D-03 -.147792889038D-11  .000000000000D+00
     .210000000000D+02 -.119093750000D+03  .406374089934D-08 -.333678547097D+00
    -.643171370029D-05  .100261002081D-01  .628083944321D-05  .515368894577D+04
     .388784000000D+06  .113621354103D-06  .200668890450D+01 -.158324837685D-06
     .979106952786D+00  .268593750000D+03  .278083615701D+01 -.795854582236D-08
    -.228223787091D-09  .100000000000D+01  .143900000000D+04  .000000000000D+00
     .240000000000D+01  .000000000000D+00 -.372529029846D-08  .210000000000D+02
     .382188000000D+06  .400000000000D+01
 8 07  8  9 12  0  0.0 -.118222087622D-03 -.159161572810D-11  .000000000000D+00
     .200000000000D+01 -.119093750000D+03  .406374089934D-08 -.331345640413D+00
    -.643171370029D-05  .100261071930D-01  .628083944321D-05  .515368895721D+04
     .388800000000D+06  .113621354103D-06  .200668877430D+01 -.158324837685D-06
     .979106958638D+00  .268593750000D+03  .278083695430D+01 -.795854582236D-08
    -.228223787091D-09  .100000000000D+01  .143900000000D+04  .000000000000D+00
     .485000000000D+01  .000000000000D+00 -.372529029846D-08  .200000000000D+01
     .381948000000D+06  .400000000000D+01
 8 07  8  9 13 59 44.0 -.118226744235D-03 -.147792889038D-11  .000000000000D+00
     .220000000000D+02 -.118468750000D+03  .405695477212D-08  .716396350864D+00
    -.645965337753D-05  .100284632063D-01  .509619712830D-05  .515369371986D+04
     .395984000000D+06  .149011611938D-06  .200663154933D+01 -.260770320892D-07
     .979105083177D+00  .287531250000D+03  .278092864562D+01 -.798033283900D-08
    -.263225247155D-09  .100000000000D+01  .143900000000D+04  .000000000000D+00
     .240000000000D+01  .000000000000D+00 -.372529029846D-08  .220000000000D+02
     .388818000000D+06  .400000000000D+01
 8 07  8  9 16  0  0.0 -.118237454444D-03 -.147792889038D-11  .000000000000D+00
     .230000000000D+02 -.125687500000D+03  .419088896919D-08  .176903530973D+01
    -.635907053947D-05  .100285783410D-01  .472366809845D-05  .515369128609D+04
     .403200000000D+06  .130385160446D-06  .200657438581D+01  .707805156708D-07
     .979103188698D+00  .297593750000D+03  .278078909055D+01 -.793390153575D-08
    -.281083128995D-09  .100000000000D+01  .143900000000D+04  .000000000000D+00
     .240000000000D+01  .000000000000D+00 -.372529029846D-08  .230000000000D+02
     .396018000000D+06  .400000000000D+01
 9 07  8  9 16  0  0.0  .824597664177D-04  .170530256582D-11  .000000000000D+00
     .700000000000D+01 -.122687500000D+03  .449768755573D-08  .140607703074D+01
    -.671297311783D-05  .193780070404D-01  .533647835255D-05  .515369602394D+04
     .403200000000D+06 -.346451997757D-06  .192102940409D+01 -.357627868652D-06
     .966874780821D+00  .284843750000D+03  .135132205219D+01 -.822427104197D-08
    -.134291314180D-09  .100000000000D+01  .143900000000D+04  .000000000000D+00
     .340000000000D+01  .000000000000D+00 -.558793544769D-08  .263000000000D+03
     .396108000000D+06  .400000000000D+01
11 07  8  9 10  0  0.0  .218935310841D-04  .568434188608D-12  .000000000000D+00
     .120000000000D+02 -.312500000000D-01  .622954532403D-08 -.916451015555D+00
     .186264514923D-07  .693229120225D-02  .703521072865D-05  .515371339226D+04
     .381600000000D+06  .206753611565D-06 -.135560396660D+01  .447034835815D-07
     .892795877446D+00  .205187500000D+03  .495503446565D+00 -.874107808357D-08
    -.407516964618D-09  .100000000000D+01  .143900000000D+04  .000000000000D+00
     .240000000000D+01  .000000000000D+00 -.116415321827D-07  .120000000000D+02
     .379722000000D+06  .400000000000D+01
11 07  8  9 12  0  0.0  .218977220356D-04  .568434188608D-12  .000000000000D+00
     .700000000000D+01 -.387500000000D+01  .626418961147D-08  .133781482570D+00
    -.154599547386D-06  .693256466184D-02  .697933137417D-05  .515371419907D+04
     .388800000000D+06  .596046447754D-07 -.135566745139D+01  .111758708954D-06
     .892792334259D+00  .208968750000D+03  .495439402937D+00 -.887036932795D-08
    -.422874762984D-09  .100000000000D+01  .143900000000D+04  .000000000000D+00
     .240000000000D+01  .000000000000D+00 -.116415321827D-07  .263000000000D+03
     .381618000000D+06  .400000000000D+01
11 07  8  9 14  0  0.0  .219019129872D-04  .568434188608D-12  .000000000000D+00
     .800000000000D+01 -.665625000000D+01  .621704465686D-08  .118395521235D+01
    -.324100255966D-06  .693228258751D-02  .697746872902D-05  .515371373558D+04
     .396000000000D+06 -.102445483208D-06 -.135573027641D+01  .540167093277D-07
     .892789020749D+00  .208531250000D+03  .495434055971D+00 -.879786643537D-08
    -.551808709837D-09  .100000000000D+01  .143900000000D+04  .000000000000D+00
     .240000000000D+01  .000000000000D+00 -.116415321827D-07  .264000000000D+03
     .388818000000D+06  .400000000000D+01
